COSMOS 2588             
1 64095U 25109A   26068.81179522  .00009169  00000+0  32611-3 0  9998
2 64095  72.9704  73.5401 0005019 308.6780  51.3966 15.29122656 44425
STARLINK-35972          
1 66638U 25271X   26068.56295532  .00038974  00000+0  13219-2 0  9993
2 66638  53.1577 140.7783 0001345  72.4079 287.7068 15.30180455 17548
